[{"OBJECT_NAME":"STARLINK-5451","OBJECT_ID":"2022-175P","EPOCH":"2026-03-09T07:15:36.559872","MEAN_MOTION":15.08848431,"ECCENTRICITY":8.579e-5,"INCLINATION":53.2183,"RA_OF_ASC_NODE":40.6577,"ARG_OF_PERICENTER":111.6309,"MEAN_ANOMALY":248.4774,"EPHEMERIS_TYPE":0,"CLASSIFICATION_TYPE":"U","NORAD_CAT_ID":54771,"ELEMENT_SET_NO":999,"REV_AT_EPOCH":17993,"BSTAR":5.73759e-6,"MEAN_MOTION_DOT":-1.96e-6,"MEAN_MOTION_DDOT":0},{"OBJECT_NAME":"NANOFF A","OBJECT_ID":"2023-185T","EPOCH":"2026-03-09T23:34:34.415328","MEAN_MOTION":15.11542977,"ECCENTRICITY":0.00086783,"INCLINATION":97.5359,"RA_OF_ASC_NODE":137.8345,"ARG_OF_PERICENTER":292.8968,"MEAN_ANOMALY":67.1346,"EPHEMERIS_TYPE":0,"CLASSIFICATION_TYPE":"U","NORAD_CAT_ID":58810,"ELEMENT_SET_NO":999,"REV_AT_EPOCH":11805,"BSTAR":0.00027314844,"MEAN_MOTION_DOT":4.57e-5,"MEAN_MOTION_DDOT":0}]
